[
  {
    "OBJECT_NAME": "COSMO-SKYMED 3",
    "OBJECT_ID": "2008-054A",
    "EPOCH": "2025-06-14T20:54:05.026464",
    "MEAN_MOTION": 15.0350229,
    "ECCENTRICITY": 0.001793,
    "INCLINATION": 97.8672,
    "RA_OF_ASC_NODE": 13.2696,
    "ARG_OF_PERICENTER": 69.2503,
    "MEAN_ANOMALY": 291.0641,
    "EPHEMERIS_TYPE": 0,
    "CLASSIFICATION_TYPE": "U",
    "NORAD_CAT_ID": 33412,
    "ELEMENT_SET_NO": 999,
    "REV_AT_EPOCH": 90168,
    "BSTAR": 0.00029305,
    "MEAN_MOTION_DOT": 3.945e-05,
    "MEAN_MOTION_DDOT": 0
  },
  {
    "OBJECT_NAME": "YAOGAN-4",
    "OBJECT_ID": "2008-061A",
    "EPOCH": "2025-06-14T19:55:03.548352",
    "MEAN_MOTION": 14.8205897,
    "ECCENTRICITY": 0.0014405,
    "INCLINATION": 97.9048,
    "RA_OF_ASC_NODE": 98.0227,
    "ARG_OF_PERICENTER": 181.2851,
    "MEAN_ANOMALY": 178.8328,
    "EPHEMERIS_TYPE": 0,
    "CLASSIFICATION_TYPE": "U",
    "NORAD_CAT_ID": 33446,
    "ELEMENT_SET_NO": 999,
    "REV_AT_EPOCH": 89123,
    "BSTAR": 0.00013085,
    "MEAN_MOTION_DOT": 9.88e-06,
    "MEAN_MOTION_DDOT": 0
  },
  {
    "OBJECT_NAME": "GOSAT (IBUKI)",
    "OBJECT_ID": "2009-002A",
    "EPOCH": "2025-06-14T13:40:44.151744",
    "MEAN_MOTION": 14.6755818,
    "ECCENTRICITY": 0.0001978,
    "INCLINATION": 98.0645,
    "RA_OF_ASC_NODE": 276.85,
    "ARG_OF_PERICENTER": 107.9999,
    "MEAN_ANOMALY": 252.1421,
    "EPHEMERIS_TYPE": 0,
    "CLASSIFICATION_TYPE": "U",
    "NORAD_CAT_ID": 33492,
    "ELEMENT_SET_NO": 999,
    "REV_AT_EPOCH": 87754,
    "BSTAR": 2.4705e-05,
    "MEAN_MOTION_DOT": 9.2e-07,
    "MEAN_MOTION_DDOT": 0
  },
  {
    "OBJECT_NAME": "YAOGAN-6",
    "OBJECT_ID": "2009-021A",
    "EPOCH": "2025-06-14T14:13:37.767072",
    "MEAN_MOTION": 16.29468016,
    "ECCENTRICITY": 0.0008948,
    "INCLINATION": 97.1792,
    "RA_OF_ASC_NODE": 148.2208,
    "ARG_OF_PERICENTER": 211.2405,
    "MEAN_ANOMALY": 261.0433,
    "EPHEMERIS_TYPE": 0,
    "CLASSIFICATION_TYPE": "U",
    "NORAD_CAT_ID": 34839,
    "ELEMENT_SET_NO": 999,
    "REV_AT_EPOCH": 90026,
    "BSTAR": 0.00045997,
    "MEAN_MOTION_DOT": 0.01919016,
    "MEAN_MOTION_DDOT": 2.3599e-06
  },
  {
    "OBJECT_NAME": "DEIMOS-1",
    "OBJECT_ID": "2009-041A",
    "EPOCH": "2025-06-14T19:52:16.723776",
    "MEAN_MOTION": 14.74606367,
    "ECCENTRICITY": 6.94e-05,
    "INCLINATION": 97.7008,
    "RA_OF_ASC_NODE": 335.0752,
    "ARG_OF_PERICENTER": 29.8521,
    "MEAN_ANOMALY": 330.2728,
    "EPHEMERIS_TYPE": 0,
    "CLASSIFICATION_TYPE": "U",
    "NORAD_CAT_ID": 35681,
    "ELEMENT_SET_NO": 999,
    "REV_AT_EPOCH": 85273,
    "BSTAR": 9.5962e-05,
    "MEAN_MOTION_DOT": 5.93e-06,
    "MEAN_MOTION_DDOT": 0
  },
  {
    "OBJECT_NAME": "DUBAISAT-1",
    "OBJECT_ID": "2009-041B",
    "EPOCH": "2025-06-14T10:31:50.978208",
    "MEAN_MOTION": 14.73984535,
    "ECCENTRICITY": 0.0011058,
    "INCLINATION": 97.9561,
    "RA_OF_ASC_NODE": 299.1706,
    "ARG_OF_PERICENTER": 164.6402,
    "MEAN_ANOMALY": 195.5144,
    "EPHEMERIS_TYPE": 0,
    "CLASSIFICATION_TYPE": "U",
    "NORAD_CAT_ID": 35682,
    "ELEMENT_SET_NO": 999,
    "REV_AT_EPOCH": 85090,
    "BSTAR": 0.00017305,
    "MEAN_MOTION_DOT": 1.088e-05,
    "MEAN_MOTION_DDOT": 0
  },
  {
    "OBJECT_NAME": "OCEANSAT-2",
    "OBJECT_ID": "2009-051A",
    "EPOCH": "2025-06-14T19:46:50.819520",
    "MEAN_MOTION": 13.99586344,
    "ECCENTRICITY": 0.0016359,
    "INCLINATION": 98.2218,
    "RA_OF_ASC_NODE": 184.7083,
    "ARG_OF_PERICENTER": 186.7372,
    "MEAN_ANOMALY": 173.3577,
    "EPHEMERIS_TYPE": 0,
    "CLASSIFICATION_TYPE": "U",
    "NORAD_CAT_ID": 35931,
    "ELEMENT_SET_NO": 999,
    "REV_AT_EPOCH": 82794,
    "BSTAR": 0.00010851,
    "MEAN_MOTION_DOT": 1.21e-06,
    "MEAN_MOTION_DDOT": 0
  },
  {
    "OBJECT_NAME": "WORLDVIEW-2 (WV-2)",
    "OBJECT_ID": "2009-055A",
    "EPOCH": "2025-06-14T13:07:14.424672",
    "MEAN_MOTION": 14.37200692,
    "ECCENTRICITY": 0.0003075,
    "INCLINATION": 98.4787,
    "RA_OF_ASC_NODE": 239.1735,
    "ARG_OF_PERICENTER": 231.5303,
    "MEAN_ANOMALY": 128.5608,
    "EPHEMERIS_TYPE": 0,
    "CLASSIFICATION_TYPE": "U",
    "NORAD_CAT_ID": 35946,
    "ELEMENT_SET_NO": 999,
    "REV_AT_EPOCH": 82282,
    "BSTAR": 6.2477e-05,
    "MEAN_MOTION_DOT": 1.42e-06,
    "MEAN_MOTION_DDOT": 0
  },
  {
    "OBJECT_NAME": "SMOS",
    "OBJECT_ID": "2009-059A",
    "EPOCH": "2025-06-14T13:18:27.465120",
    "MEAN_MOTION": 14.39744626,
    "ECCENTRICITY": 0.0001088,
    "INCLINATION": 98.4424,
    "RA_OF_ASC_NODE": 353.2365,
    "ARG_OF_PERICENTER": 95.6936,
    "MEAN_ANOMALY": 264.4376,
    "EPHEMERIS_TYPE": 0,
    "CLASSIFICATION_TYPE": "U",
    "NORAD_CAT_ID": 36036,
    "ELEMENT_SET_NO": 999,
    "REV_AT_EPOCH": 82055,
    "BSTAR": 8.8805e-05,
    "MEAN_MOTION_DOT": 2.35e-06,
    "MEAN_MOTION_DDOT": 0
  },
  {
    "OBJECT_NAME": "YAOGAN-7",
    "OBJECT_ID": "2009-069A",
    "EPOCH": "2025-06-14T16:18:43.708320",
    "MEAN_MOTION": 14.77429017,
    "ECCENTRICITY": 0.002568,
    "INCLINATION": 98.0553,
    "RA_OF_ASC_NODE": 47.9021,
    "ARG_OF_PERICENTER": 140.8472,
    "MEAN_ANOMALY": 219.4602,
    "EPHEMERIS_TYPE": 0,
    "CLASSIFICATION_TYPE": "U",
    "NORAD_CAT_ID": 36110,
    "ELEMENT_SET_NO": 999,
    "REV_AT_EPOCH": 83539,
    "BSTAR": 8.0048e-05,
    "MEAN_MOTION_DOT": 5.19e-06,
    "MEAN_MOTION_DDOT": 0
  },
  {
    "OBJECT_NAME": "TANDEM-X",
    "OBJECT_ID": "2010-030A",
    "EPOCH": "2025-06-13T12:38:53.394432",
    "MEAN_MOTION": 15.19150541,
    "ECCENTRICITY": 0.0001878,
    "INCLINATION": 97.4461,
    "RA_OF_ASC_NODE": 172.5057,
    "ARG_OF_PERICENTER": 95.7323,
    "MEAN_ANOMALY": 264.4125,
    "EPHEMERIS_TYPE": 0,
    "CLASSIFICATION_TYPE": "U",
    "NORAD_CAT_ID": 36605,
    "ELEMENT_SET_NO": 999,
    "REV_AT_EPOCH": 83067,
    "BSTAR": 3.9402e-05,
    "MEAN_MOTION_DOT": 7.6e-06,
    "MEAN_MOTION_DDOT": 0
  },
  {
    "OBJECT_NAME": "CARTOSAT-2B",
    "OBJECT_ID": "2010-035A",
    "EPOCH": "2025-06-14T20:07:45.636960",
    "MEAN_MOTION": 14.78709626,
    "ECCENTRICITY": 0.0010554,
    "INCLINATION": 97.8085,
    "RA_OF_ASC_NODE": 220.4286,
    "ARG_OF_PERICENTER": 307.8243,
    "MEAN_ANOMALY": 52.2012,
    "EPHEMERIS_TYPE": 0,
    "CLASSIFICATION_TYPE": "U",
    "NORAD_CAT_ID": 36795,
    "ELEMENT_SET_NO": 999,
    "REV_AT_EPOCH": 80564,
    "BSTAR": 0.00010458,
    "MEAN_MOTION_DOT": 7.17e-06,
    "MEAN_MOTION_DDOT": 0
  },
  {
    "OBJECT_NAME": "YAOGAN-10",
    "OBJECT_ID": "2010-038A",
    "EPOCH": "2025-06-14T19:11:32.982720",
    "MEAN_MOTION": 14.84216568,
    "ECCENTRICITY": 0.0001408,
    "INCLINATION": 97.9251,
    "RA_OF_ASC_NODE": 186.8361,
    "ARG_OF_PERICENTER": 94.6144,
    "MEAN_ANOMALY": 78.7671,
    "EPHEMERIS_TYPE": 0,
    "CLASSIFICATION_TYPE": "U",
    "NORAD_CAT_ID": 36834,
    "ELEMENT_SET_NO": 999,
    "REV_AT_EPOCH": 80276,
    "BSTAR": 8.2398e-05,
    "MEAN_MOTION_DOT": 6.36e-06,
    "MEAN_MOTION_DDOT": 0
  },
  {
    "OBJECT_NAME": "COSMO-SKYMED 4",
    "OBJECT_ID": "2010-060A",
    "EPOCH": "2025-06-14T20:22:29.575488",
    "MEAN_MOTION": 14.82149419,
    "ECCENTRICITY": 0.0001454,
    "INCLINATION": 97.8872,
    "RA_OF_ASC_NODE": 349.7806,
    "ARG_OF_PERICENTER": 90.6619,
    "MEAN_ANOMALY": 269.4761,
    "EPHEMERIS_TYPE": 0,
    "CLASSIFICATION_TYPE": "U",
    "NORAD_CAT_ID": 37216,
    "ELEMENT_SET_NO": 999,
    "REV_AT_EPOCH": 79021,
    "BSTAR": 6.0268e-05,
    "MEAN_MOTION_DOT": 4.28e-06,
    "MEAN_MOTION_DDOT": 0
  }
]