33412,COSMO-SKYMED 3,2008,95.78,1700.0,+,97.87,Active,1,LEO,USA,Italy,Government/Military,Earth Observation,Delta,1 33412U 08054A   25165.87089151  .00003945  00000+0  29305-3 0  9990,2 33412  97.8672  13.2696 0017930  69.2503 291.0641 15.03502290901680,15.0350229,0.001793,LEO
33446,YAOGAN-4,2008,97.16,2700.0,+,97.9,Active,1,LEO,PRC,China,Government,Earth Observation,Long March,1 33446U 08061A   25165.82990218  .00000988  00000+0  13085-3 0  9997,2 33446  97.9048  98.0227 0014405 181.2851 178.8328 14.82058970891231,14.8205897,0.0014405,LEO
33492,GOSAT (IBUKI),2009,98.12,1750.0,+,98.06,Active,1,LEO,Japan,Japan,Government,Earth Observation,H2A,1 33492U 09002A   25165.56995546  .00000092  00000+0  24705-4 0  9992,2 33492  98.0645 276.8500 0001978 107.9999 252.1421 14.67558180877545,14.6755818,0.0001978,LEO
34839,YAOGAN-6,2009,88.7,1800.0,+,97.18,Active,1,LEO,PRC,China,Government,Earth Observation,Long March,1 34839U 09021A   25165.59279823  .01919016  23599-5  45997-3 0  9990,2 34839  97.1792 148.2208 0008948 211.2405 261.0433 16.29468016900262,16.29468016,0.0008948,LEO
35681,DEIMOS-1,2009,97.65,90.0,+,97.7,Active,1,LEO,Kazakhstan,Spain,Government,Earth Observation,Dnepr,1 35681U 09041A   25165.82797134  .00000593  00000+0  95962-4 0  9998,2 35681  97.7008 335.0752 0000694  29.8521 330.2728 14.74606367852731,14.74606367,6.94e-05,LEO
35682,DUBAISAT-1,2009,97.69,-1.0,+,97.96,Active,0,LEO,Kazakhstan,UAE,Unknown,Unknown,Unknown,1 35682U 09041B   25165.43878447  .00001088  00000+0  17305-3 0  9997,2 35682  97.9561 299.1706 0011058 164.6402 195.5144 14.73984535850905,14.73984535,0.0011058,LEO
35931,OCEANSAT-2,2009,102.89,-1.0,+,98.22,Active,0,LEO,India,India,Unknown,Unknown,Unknown,1 35931U 09051A   25165.82419930  .00000121  00000+0  10851-3 0  9992,2 35931  98.2218 184.7083 0016359 186.7372 173.3577 13.99586344827947,13.99586344,0.0016359,LEO
35946,WORLDVIEW-2 (WV-2),2009,100.19,2800.0,+,98.48,Active,1,LEO,USA,USA,Commercial,Earth Observation,Delta,1 35946U 09055A   25165.54669473  .00000142  00000+0  62477-4 0  9995,2 35946  98.4787 239.1735 0003075 231.5303 128.5608 14.37200692822820,14.37200692,0.0003075,LEO
36036,SMOS,2009,100.02,658.0,+,98.44,Active,1,LEO,Russia,ESA,Government,Earth Observation,Breeze,1 36036U 09059A   25165.55448455  .00000235  00000+0  88805-4 0  9992,2 36036  98.4424 353.2365 0001088  95.6936 264.4376 14.39744626820551,14.39744626,0.0001088,LEO
36110,YAOGAN-7,2009,97.47,2700.0,+,98.06,Active,1,LEO,PRC,China,Government,Earth Observation,Long March,1 36110U 09069A   25165.67967255  .00000519  00000+0  80048-4 0  9999,2 36110  98.0553  47.9021 0025680 140.8472 219.4602 14.77429017835397,14.77429017,0.002568,LEO
36605,TANDEM-X,2010,94.79,1350.0,+,97.45,Active,1,LEO,Kazakhstan,Germany,Government,Earth Observation,Dnepr,1 36605U 10030A   25164.52700688  .00000760  00000+0  39402-4 0  9992,2 36605  97.4461 172.5057 0001878  95.7323 264.4125 15.19150541830673,15.19150541,0.0001878,LEO
36795,CARTOSAT-2B,2010,97.38,694.0,+,97.81,Active,1,LEO,India,India,Government,Earth Observation,PSLV,1 36795U 10035A   25165.83872265  .00000717  00000+0  10458-3 0  9994,2 36795  97.8085 220.4286 0010554 307.8243  52.2012 14.78709626805640,14.78709626,0.0010554,LEO
36834,YAOGAN-10,2010,97.02,-1.0,+,97.93,Active,1,LEO,PRC,China,Military,Earth Observation,Long March,1 36834U 10038A   25165.79968730  .00000636  00000+0  82398-4 0  9992,2 36834  97.9251 186.8361 0001408  94.6144  78.7671 14.84216568802767,14.84216568,0.0001408,LEO
37216,COSMO-SKYMED 4,2010,97.16,1700.0,+,97.89,Active,1,LEO,USA,Italy,Government/Military,Earth Observation,Delta,1 37216U 10060A   25165.84895342  .00000428  00000+0  60268-4 0  9997,2 37216  97.8872 349.7806 0001454  90.6619 269.4761 14.82149419790211,14.82149419,0.0001454,LEO
